[
    {
        "Altitude(m)": 605470.7831666236,
        "Argument of Periapsis(deg)": 0.0,
        "Eccentricity": 0.0,
        "Inclination(deg)": 60.0,
        "Latitude(deg)": 27.988183965496713,
        "Longitude(deg)": 37.26289305370414,
        "Mean Anomaly(deg)": -212.72729999999999,
        "RAAN(deg)": 335.0,
        "Satellite Name": "Test1 1483",
        "Satellite Number": 1483,
        "Semi-Major Axis(m)": 6980739.136638005,
        "Time(s)": 0
    },
    {
        "Altitude(m)": 605395.8213265655,
        "Argument of Periapsis(deg)": 0.00010418945913296404,
        "Eccentricity": 0.0,
        "Inclination(deg)": 60.0,
        "Latitude(deg)": 27.473875292809833,
        "Longitude(deg)": 37.61608192661272,
        "Mean Anomaly(deg)": -212.1071938545382,
        "RAAN(deg)": 334.99957995086027,
        "Satellite Name": "Test1 1483",
        "Satellite Number": 1483,
        "Semi-Major Axis(m)": 6980739.136638005,
        "Time(s)": 10
    }
]